OBJECT_NAME,OBJECT_ID,EPOCH,MEAN_MOTION,ECCENTRICITY,INCLINATION,RA_OF_ASC_NODE,ARG_OF_PERICENTER,MEAN_ANOMALY,EPHEMERIS_TYPE,CLASSIFICATION_TYPE,NORAD_CAT_ID,ELEMENT_SET_NO,REV_AT_EPOCH,BSTAR,MEAN_MOTION_DOT,MEAN_MOTION_DDOT
QIANFAN-132,2026-104F,2026-06-04T20:38:20.311584,14.18146950,.0004942,88.9863,343.0268,135.5904,224.5682,0,U,69078,999,333,.49393639E-4,.116E-5,0
QIANFAN-133,2026-104G,2026-06-04T20:16:38.232480,14.19028738,.00044768,88.9863,343.0244,145.5329,214.6152,0,U,69079,999,333,.50990551E-4,.121E-5,0
QIANFAN-134,2026-104H,2026-06-04T21:50:31.756992,14.19324228,.00054013,88.9863,343.0155,129.8455,230.3210,0,U,69080,999,334,.51297821E-4,.122E-5,0
QIANFAN-135,2026-104J,2026-06-04T21:43:53.309568,14.19621693,.00043076,88.9863,343.0150,157.3859,202.7521,0,U,69081,999,334,.47942677E-4,.116E-5,0
QIANFAN-136,2026-104K,2026-06-04T21:38:19.770144,14.19914009,.00047566,88.9862,343.0141,145.5774,214.5724,0,U,69082,999,334,.50512631E-4,.122E-5,0
QIANFAN-137,2026-104L,2026-06-04T20:20:38.200704,14.25196309,.00054466,88.9862,343.0059,139.1401,221.0202,0,U,69083,999,334,.46114138E-4,.123E-5,0
QIANFAN-138,2026-104M,2026-06-04T21:22:18.688512,14.20801546,.00043006,88.9863,343.0125,147.3291,212.8167,0,U,69084,999,334,.4817098E-4,.118E-5,0
QIANFAN-139,2026-104N,2026-06-04T21:15:43.172640,14.21102318,.00042468,88.9863,343.0119,137.6079,222.5441,0,U,69085,999,334,.55672089E-4,.135E-5,0
QIANFAN-140,2026-104P,2026-06-04T21:09:34.451136,14.21391905,.00042891,88.9863,343.0111,142.1592,217.9901,0,U,69086,999,334,.4972639E-4,.123E-5,0
QIANFAN-141,2026-104Q,2026-06-04T21:03:55.883232,14.21633300,.00039129,88.9863,343.0105,138.1452,222.0039,0,U,69087,999,334,.47161478E-4,.118E-5,0
QIANFAN-142,2026-104R,2026-06-04T20:56:59.368704,14.21952105,.00051542,88.9863,343.0097,130.1029,230.0615,0,U,69088,999,334,.47834912E-4,.12E-5,0
QIANFAN-143,2026-104S,2026-06-04T22:21:30.106944,14.23170687,.00044611,88.9863,342.9998,131.8755,228.2818,0,U,69089,999,335,.47555338E-4,.122E-5,0
QIANFAN-144,2026-104T,2026-06-04T20:47:47.393664,14.22581450,.00038379,88.9863,343.0088,123.1846,236.9714,0,U,69090,999,334,.50320654E-4,.127E-5,0
ZHUQUE-2E R/B,2026-105A,2026-06-04T17:18:47.283840,15.13573406,.0463052,88.9715,195.9639,346.0313,12.8459,0,U,69095,999,326,.45546552E-3,.184916E-2,-.772087E-6
2026-106A,2026-106A,2026-06-04T15:09:10.862208,15.11037132,.0013466,97.5095,237.9435,203.5034,156.5582,0,U,69097,999,308,.543886E-3,.9052E-4,0
2026-106B,2026-106B,2026-06-04T15:16:55.543008,15.09575067,.00142668,97.5082,237.9319,199.5733,160.4950,0,U,69098,999,308,.42602016E-3,.6796E-4,0
2026-106C,2026-106C,2026-06-04T15:08:24.576864,15.11076088,.00135546,97.5097,237.9445,204.3760,155.6830,0,U,69099,999,308,.53277866E-3,.8876E-4,0
2026-106D,2026-106D,2026-06-04T15:05:56.171040,15.11202473,.00131226,97.5062,237.9411,207.0214,153.0334,0,U,69100,999,308,.49447297E-3,.826E-4,0
2026-106E,2026-106E,2026-06-04T15:00:25.283232,15.11460406,.0015124,97.5073,237.9468,208.9127,151.1267,0,U,69101,999,308,.54174936E-3,.9128E-4,0
DRAGON CRS-34,2026-107A,2026-06-04T17:47:31.539264,15.49603626,.00070311,51.6329,1.7083,132.5880,227.5703,0,U,69103,999,56934,.15298287E-3,.8168E-4,0
QIANFAN-145,2026-108A,2026-06-04T21:43:15.240000,14.16075609,.00153997,89.0120,23.5884,152.2041,207.9973,0,U,69104,999,260,.1647089E-3,.34E-5,0
QIANFAN-146,2026-108B,2026-06-04T22:02:14.757504,14.23383272,.00156983,89.0124,23.5725,150.7846,209.4227,0,U,69105,999,261,.16573735E-3,.391E-5,0
QIANFAN-147,2026-108C,2026-06-04T21:25:55.460064,14.17032361,.00153912,89.0119,23.5864,149.3185,210.8907,0,U,69106,999,260,.15815315E-3,.332E-5,0
QIANFAN-148,2026-108D,2026-06-04T21:17:59.488512,14.17401495,.00158768,89.0120,23.5859,154.3355,205.8625,0,U,69107,999,260,.15694932E-3,.332E-5,0
QIANFAN-149,2026-108E,2026-06-04T22:56:35.736288,14.17856105,.00155352,89.0123,23.5781,153.3639,206.8352,0,U,69108,999,261,.16251034E-3,.346E-5,0
QIANFAN-150,2026-108F,2026-06-04T22:45:28.742976,14.18304595,.00155575,89.0124,23.5771,155.1399,205.0543,0,U,69109,999,261,.15657795E-3,.337E-5,0
QIANFAN-151,2026-108G,2026-06-04T22:38:25.552320,14.18800207,.0015671,89.0123,23.5761,153.6760,206.5229,0,U,69110,999,261,.16637982E-3,.36E-5,0
QIANFAN-152,2026-108H,2026-06-04T22:32:48.877440,14.19417527,.00148901,89.0121,23.5754,153.5811,206.6141,0,U,69111,999,261,.16098018E-3,.353E-5,0
