QIANFAN-132             
1 69078U 26104F   26155.85995731  .00000116  00000+0  49394-4 0  9999
2 69078  88.9863 343.0268 0004942 135.5904 224.5682 14.18146950  3333
QIANFAN-133             
1 69079U 26104G   26155.84488695  .00000121  00000+0  50991-4 0  9996
2 69079  88.9863 343.0244 0004476 145.5329 214.6152 14.19028738  3338
QIANFAN-134             
1 69080U 26104H   26155.91008978  .00000122  00000+0  51298-4 0  9990
2 69080  88.9863 343.0155 0005401 129.8455 230.3210 14.19324228  3349
QIANFAN-135             
1 69081U 26104J   26155.90547812  .00000116  00000+0  47943-4 0  9990
2 69081  88.9863 343.0150 0004307 157.3859 202.7521 14.19621693  3347
QIANFAN-136             
1 69082U 26104K   26155.90161771  .00000122  00000+0  50513-4 0  9991
2 69082  88.9862 343.0141 0004756 145.5774 214.5724 14.19914009  3342
QIANFAN-137             
1 69083U 26104L   26155.84766436  .00000123  00000+0  46114-4 0  9997
2 69083  88.9862 343.0059 0005446 139.1401 221.0202 14.25196309  3340
QIANFAN-138             
1 69084U 26104M   26155.89049408  .00000118  00000+0  48171-4 0  9995
2 69084  88.9863 343.0125 0004300 147.3291 212.8167 14.20801546  3341
QIANFAN-139             
1 69085U 26104N   26155.88591635  .00000135  00000+0  55672-4 0  9992
2 69085  88.9863 343.0119 0004246 137.6079 222.5441 14.21102318  3345
QIANFAN-140             
1 69086U 26104P   26155.88164874  .00000123  00000+0  49726-4 0  9994
2 69086  88.9863 343.0111 0004289 142.1592 217.9901 14.21391905  3347
QIANFAN-141             
1 69087U 26104Q   26155.87773013  .00000118  00000+0  47161-4 0  9990
2 69087  88.9863 343.0105 0003912 138.1452 222.0039 14.21633300  3340
QIANFAN-142             
1 69088U 26104R   26155.87290936  .00000120  00000+0  47835-4 0  9990
2 69088  88.9863 343.0097 0005154 130.1029 230.0615 14.21952105  3349
QIANFAN-143             
1 69089U 26104S   26155.93159846  .00000122  00000+0  47555-4 0  9993
2 69089  88.9863 342.9998 0004461 131.8755 228.2818 14.23170687  3356
QIANFAN-144             
1 69090U 26104T   26155.86652076  .00000127  00000+0  50321-4 0  9990
2 69090  88.9863 343.0088 0003837 123.1846 236.9714 14.22581450  3344
ZHUQUE-2E R/B           
1 69095U 26105A   26155.72138060  .00184916 -77209-6  45547-3 0  9998
2 69095  88.9715 195.9639 0463052 346.0313  12.8459 15.13573406  3266
2026-106A               
1 69097U 26106A   26155.63137572  .00009052  00000+0  54389-3 0  9996
2 69097  97.5095 237.9435 0013466 203.5034 156.5582 15.11037132  3085
2026-106B               
1 69098U 26106B   26155.63675397  .00006796  00000+0  42602-3 0  9996
2 69098  97.5082 237.9319 0014266 199.5733 160.4950 15.09575067  3086
2026-106C               
1 69099U 26106C   26155.63084001  .00008876  00000+0  53278-3 0  9995
2 69099  97.5097 237.9445 0013554 204.3760 155.6830 15.11076088  3082
2026-106D               
1 69100U 26106D   26155.62912235  .00008260  00000+0  49447-3 0  9996
2 69100  97.5062 237.9411 0013122 207.0214 153.0334 15.11202473  3085
2026-106E               
1 69101U 26106E   26155.62529263  .00009128  00000+0  54175-3 0  9990
2 69101  97.5073 237.9468 0015124 208.9127 151.1267 15.11460406  3083
DRAGON CRS-34           
1 69103U 26107A   26155.74133726  .00008168  00000+0  15298-3 0  9997
2 69103  51.6329   1.7083 0007031 132.5880 227.5703 15.49603626569349
QIANFAN-145             
1 69104U 26108A   26155.90503750  .00000340  00000+0  16471-3 0  9993
2 69104  89.0120  23.5884 0015399 152.2041 207.9973 14.16075609  2608
QIANFAN-146             
1 69105U 26108B   26155.91822636  .00000391  00000+0  16574-3 0  9992
2 69105  89.0124  23.5725 0015698 150.7846 209.4227 14.23383272  2611
QIANFAN-147             
1 69106U 26108C   26155.89300301  .00000332  00000+0  15815-3 0  9992
2 69106  89.0119  23.5864 0015391 149.3185 210.8907 14.17032361  2603
QIANFAN-148             
1 69107U 26108D   26155.88749408  .00000332  00000+0  15695-3 0  9993
2 69107  89.0120  23.5859 0015876 154.3355 205.8625 14.17401495  2602
QIANFAN-149             
1 69108U 26108E   26155.95596917  .00000346  00000+0  16251-3 0  9991
2 69108  89.0123  23.5781 0015535 153.3639 206.8352 14.17856105  2617
QIANFAN-150             
1 69109U 26108F   26155.94824934  .00000337  00000+0  15658-3 0  9994
2 69109  89.0124  23.5771 0015557 155.1399 205.0543 14.18304595  2610
QIANFAN-151             
1 69110U 26108G   26155.94335130  .00000360  00000+0  16638-3 0  9996
2 69110  89.0123  23.5761 0015671 153.6760 206.5229 14.18800207  2610
QIANFAN-152             
1 69111U 26108H   26155.93945460  .00000353  00000+0  16098-3 0  9991
2 69111  89.0121  23.5754 0014890 153.5811 206.6141 14.19417527  2613
